[
    {
        "Market": "US",
        "State": "FL",
        "ZipCode": "11-111",
        "DeliveryMethod": "HomeDelivery",
        "ShippingMethod": "Standard"
    },
    {
        "Market": "US",
        "State": "FL",
        "ZipCode": "11-111",
        "DeliveryMethod": "HomeDelivery",
        "ShippingMethod": "Expedited"
    },
    {
        "Market": "US",
        "State": "FL",
        "ZipCode": "11-111",
        "DeliveryMethod": "HomeDelivery",
        "ShippingMethod": "SameDay"
    },
    {
        "Market": "US",
        "State": "FL",
        "ZipCode": "11-111",
        "DeliveryMethod": "Click&Collect",
        "ShippingMethod": "Click&Collect"
    },
    {
        "Market": "US",
        "State": "FL",
        "ZipCode": "11-112",
        "DeliveryMethod": "HomeDelivery",
        "ShippingMethod": "Standard"
    },
    {
        "Market": "US",
        "State": "FL",
        "ZipCode": "11-112",
        "DeliveryMethod": "HomeDelivery",
        "ShippingMethod": "Expedited"
    },
    {
        "Market": "US",
        "State": "FL",
        "ZipCode": "11-112",
        "DeliveryMethod": "Click&Collect",
        "ShippingMethod": "Click&Collect"
    },
    {
        "Market": "US",
        "State": "FL",
        "ZipCode": "11-113",
        "DeliveryMethod": "HomeDelivery",
        "ShippingMethod": "Standard"
    },
    {
        "Market": "US",
        "State": "FL",
        "ZipCode": "22-222",
        "DeliveryMethod": "NoDelivery",
        "ShippingMethod": null
    },
    {
        "Market": "US",
        "State": "TX",
        "ZipCode": "33-333",
        "DeliveryMethod": "HomeDelivery",
        "ShippingMethod": "Standard"
    },
    {
        "Market": "US",
        "State": "TX",
        "ZipCode": "33-333",
        "DeliveryMethod": "HomeDelivery",
        "ShippingMethod": "Expedited"
    },
    {
        "Market": "US",
        "State": "TX",
        "ZipCode": "33-333",
        "DeliveryMethod": "HomeDelivery",
        "ShippingMethod": "SameDay"
    },
    {
        "Market": "US",
        "State": "TX",
        "ZipCode": "33-334",
        "DeliveryMethod": "HomeDelivery",
        "ShippingMethod": "Standard"
    },
    {
        "Market": "US",
        "State": "TX",
        "ZipCode": "44-444",
        "DeliveryMethod": "NoDelivery",
        "ShippingMethod": null
    },
    {
        "Market": "US",
        "State": "TX",
        "ZipCode": "55-555",
        "DeliveryMethod": "NoDelivery",
        "ShippingMethod": null
    },
    {
        "Market": "US",
        "State": "TX",
        "ZipCode": "66-666",
        "DeliveryMethod": "NoDelivery",
        "ShippingMethod": null
    }
]
